start=new Date('2023-06-25T00:00:00.000Z').valueOf();
sats=[{"REF_FRAME":"TEME","INCLINATION":"53.2162","BSTAR":"-0.00003254700000","DECAY_DATE":null,"TIME_SYSTEM":"UTC","TLE_LINE1":"1 52847U 22062T   23175.08663858 -.00000806  00000-0 -32547-4 0  9991","MEAN_MOTION_DDOT":"0.0000000000000","ECCENTRICITY":"0.00010220","ARG_OF_PERICENTER":"80.2257","RCS_SIZE":"LARGE","EPOCH":"2023-06-24T02:04:45.573312","PERIAPSIS":"539.055","MEAN_ELEMENT_THEORY":"SGP4","FILE":"3941346","OBJECT_TYPE":"PAYLOAD","RA_OF_ASC_NODE":"156.6214","TLE_LINE2":"2 52847  53.2162 156.6214 0001022  80.2257 279.8851 15.08834446 56881","MEAN_MOTION":"15.08834446","CLASSIFICATION_TYPE":"U","MEAN_MOTION_DOT":"-0.00000806","MEAN_ANOMALY":"279.8851","OBJECT_ID":"2022-062T","REV_AT_EPOCH":"5688","LAUNCH_DATE":"2022-06-17","GP_ID":"234518161","SITE":"AFETR","NORAD_CAT_ID":"52847","CENTER_NAME":"EARTH","EPHEMERIS_TYPE":"0","ELEMENT_SET_NO":"999","PERIOD":"95.438","APOAPSIS":"540.469","COUNTRY_CODE":"US","SEMIMAJOR_AXIS":"6917.897","OBJECT_NAME":"STARLINK-4206"},{"MEAN_MOTION":"15.08840148","RA_OF_ASC_NODE":"156.5359","TLE_LINE2":"2 52848  53.2172 156.5359 0001189  83.2105 276.9023 15.08840148 56886","MEAN_MOTION_DOT":"-0.00001778","CLASSIFICATION_TYPE":"U","RCS_SIZE":"LARGE","ARG_OF_PERICENTER":"83.2105","OBJECT_TYPE":"PAYLOAD","MEAN_ELEMENT_THEORY":"SGP4","FILE":"3941346","PERIAPSIS":"538.922","EPOCH":"2023-06-24T02:31:15.430080","TIME_SYSTEM":"UTC","DECAY_DATE":null,"BSTAR":"-0.00009365900000","INCLINATION":"53.2172","ECCENTRICITY":"0.00011890","MEAN_MOTION_DDOT":"0.0000000000000","TLE_LINE1":"1 52848U 22062U   23175.10503970 -.00001778  00000-0 -93659-4 0  9993","REF_FRAME":"TEME","SEMIMAJOR_AXIS":"6917.880","OBJECT_NAME":"STARLINK-4202","ELEMENT_SET_NO":"999","PERIOD":"95.438","COUNTRY_CODE":"US","APOAPSIS":"540.567","GP_ID":"234518450","EPHEMERIS_TYPE":"0","NORAD_CAT_ID":"52848","CENTER_NAME":"EARTH","SITE":"AFETR","MEAN_ANOMALY":"276.9023","LAUNCH_DATE":"2022-06-17","REV_AT_EPOCH":"5688","OBJECT_ID":"2022-062U"},{"COUNTRY_CODE":"US","APOAPSIS":"540.555","ELEMENT_SET_NO":"999","PERIOD":"95.438","OBJECT_NAME":"STARLINK-4197","SEMIMAJOR_AXIS":"6917.884","REV_AT_EPOCH":"5705","LAUNCH_DATE":"2022-06-17","OBJECT_ID":"2022-062V","MEAN_ANOMALY":"264.4927","EPHEMERIS_TYPE":"0","NORAD_CAT_ID":"52849","CENTER_NAME":"EARTH","SITE":"AFETR","GP_ID":"234525256","OBJECT_TYPE":"PAYLOAD","FILE":"3941651","MEAN_ELEMENT_THEORY":"SGP4","PERIAPSIS":"538.943","EPOCH":"2023-06-24T08:17:01.128480","RCS_SIZE":"LARGE","ARG_OF_PERICENTER":"95.6198","MEAN_MOTION_DOT":"0.00000798","CLASSIFICATION_TYPE":"U","MEAN_MOTION":"15.08838681","RA_OF_ASC_NODE":"145.4585","TLE_LINE2":"2 52849  53.2159 145.4585 0001165  95.6198 264.4927 15.08838681 57057","REF_FRAME":"TEME","ECCENTRICITY":"0.00011650","TLE_LINE1":"1 52849U 22062V   23175.34515195  .00000798  00000-0  68188-4 0  9990","MEAN_MOTION_DDOT":"0.0000000000000","TIME_SYSTEM":"UTC","DECAY_DATE":null,"INCLINATION":"53.2159","BSTAR":"0.00006818800000"},{"APOAPSIS":"540.529","COUNTRY_CODE":"US","ELEMENT_SET_NO":"999","PERIOD":"95.437","OBJECT_NAME":"STARLINK-4187","SEMIMAJOR_AXIS":"6917.866","OBJECT_ID":"2022-062W","REV_AT_EPOCH":"5693","LAUNCH_DATE":"2022-06-17","MEAN_ANOMALY":"272.1441","SITE":"AFETR","NORAD_CAT_ID":"52850","CENTER_NAME":"EARTH","EPHEMERIS_TYPE":"0","GP_ID":"234532431","EPOCH":"2023-06-24T10:06:58.594464","PERIAPSIS":"538.934","FILE":"3941914","MEAN_ELEMENT_THEORY":"SGP4","OBJECT_TYPE":"PAYLOAD","ARG_OF_PERICENTER":"87.9683","RCS_SIZE":"LARGE","CLASSIFICATION_TYPE":"U","MEAN_MOTION_DOT":"0.00000653","TLE_LINE2":"2 52850  53.2157 155.1137 0001153  87.9683 272.1441 15.08844659 56933","RA_OF_ASC_NODE":"155.1137","MEAN_MOTION":"15.08844659","REF_FRAME":"TEME","MEAN_MOTION_DDOT":"0.0000000000000","TLE_LINE1":"1 52850U 22062W   23175.42151151  .00000653  00000-0  59122-4 0  9997","ECCENTRICITY":"0.00011530","INCLINATION":"53.2157","BSTAR":"0.00005912200000","DECAY_DATE":null,"TIME_SYSTEM":"UTC"},{"OBJECT_NAME":"STARLINK-3809","SEMIMAJOR_AXIS":"6917.894","COUNTRY_CODE":"US","APOAPSIS":"540.477","PERIOD":"95.438","ELEMENT_SET_NO":"999","EPHEMERIS_TYPE":"0","CENTER_NAME":"EARTH","NORAD_CAT_ID":"52851","SITE":"AFETR","GP_ID":"234518451","LAUNCH_DATE":"2022-06-17","REV_AT_EPOCH":"5701","OBJECT_ID":"2022-062X","MEAN_ANOMALY":"274.0596","MEAN_MOTION_DOT":"-0.00000175","CLASSIFICATION_TYPE":"U","MEAN_MOTION":"15.08835440","TLE_LINE2":"2 52851  53.2152 146.6656 0001037  86.0515 274.0596 15.08835440 57015","RA_OF_ASC_NODE":"146.6656","OBJECT_TYPE":"PAYLOAD","MEAN_ELEMENT_THEORY":"SGP4","FILE":"3941346","PERIAPSIS":"539.042","EPOCH":"2023-06-24T01:50:10.933152","RCS_SIZE":"LARGE","ARG_OF_PERICENTER":"86.0515","ECCENTRICITY":"0.00010370","TLE_LINE1":"1 52851U 22062X   23175.07651543 -.00000175  00000-0  70734-5 0  9992","MEAN_MOTION_DDOT":"0.0000000000000","TIME_SYSTEM":"UTC","DECAY_DATE":null,"BSTAR":"0.00000707340000","INCLINATION":"53.2152","REF_FRAME":"TEME"},{"COUNTRY_CODE":"US","APOAPSIS":"540.506","ELEMENT_SET_NO":"999","PERIOD":"95.438","OBJECT_NAME":"STARLINK-4184","SEMIMAJOR_AXIS":"6917.882","REV_AT_EPOCH":"5703","LAUNCH_DATE":"2022-06-17","OBJECT_ID":"2022-062Y","MEAN_ANOMALY":"270.4603","EPHEMERIS_TYPE":"0","SITE":"AFETR","NORAD_CAT_ID":"52852","CENTER_NAME":"EARTH","GP_ID":"234525261","OBJECT_TYPE":"PAYLOAD","PERIAPSIS":"538.989","EPOCH":"2023-06-24T05:11:32.967456","FILE":"3941651","MEAN_ELEMENT_THEORY":"SGP4","RCS_SIZE":"LARGE","ARG_OF_PERICENTER":"89.6515","MEAN_MOTION_DOT":"0.00000146","CLASSIFICATION_TYPE":"U","MEAN_MOTION":"15.08839317","TLE_LINE2":"2 52852  53.2161 146.0363 0001096  89.6515 270.4603 15.08839317 57037","RA_OF_ASC_NODE":"146.0363","REF_FRAME":"TEME","ECCENTRICITY":"0.00010960","MEAN_MOTION_DDOT":"0.0000000000000","TLE_LINE1":"1 52852U 22062Y   23175.21635379  .00000146  00000-0  27254-4 0  9993","DECAY_DATE":null,"TIME_SYSTEM":"UTC","INCLINATION":"53.2161","BSTAR":"0.00002725400000"},{"OBJECT_NAME":"STARLINK-4189","SEMIMAJOR_AXIS":"6917.881","COUNTRY_CODE":"US","APOAPSIS":"540.612","PERIOD":"95.438","ELEMENT_SET_NO":"999","EPHEMERIS_TYPE":"0","CENTER_NAME":"EARTH","NORAD_CAT_ID":"52853","SITE":"AFETR","GP_ID":"234525758","REV_AT_EPOCH":"5705","LAUNCH_DATE":"2022-06-17","OBJECT_ID":"2022-062Z","MEAN_ANOMALY":"264.1681","MEAN_MOTION_DOT":"0.00000552","CLASSIFICATION_TYPE":"U","MEAN_MOTION":"15.08839907","TLE_LINE2":"2 52853  53.2163 145.4902 0001252  95.9454 264.1681 15.08839907 57051","RA_OF_ASC_NODE":"145.4902","OBJECT_TYPE":"PAYLOAD","FILE":"3941651","MEAN_ELEMENT_THEORY":"SGP4","EPOCH":"2023-06-24T07:57:11.822976","PERIAPSIS":"538.880","RCS_SIZE":"LARGE","ARG_OF_PERICENTER":"95.9454","ECCENTRICITY":"0.00012520","MEAN_MOTION_DDOT":"0.0000000000000","TLE_LINE1":"1 52853U 22062Z   23175.33138684  .00000552  00000-0  52778-4 0  9994","TIME_SYSTEM":"UTC","DECAY_DATE":null,"BSTAR":"0.00005277800000","INCLINATION":"53.2163","REF_FRAME":"TEME"},{"COUNTRY_CODE":"US","APOAPSIS":"540.496","PERIOD":"95.438","ELEMENT_SET_NO":"999","OBJECT_NAME":"STARLINK-4204","SEMIMAJOR_AXIS":"6917.899","LAUNCH_DATE":"2022-06-17","REV_AT_EPOCH":"5701","OBJECT_ID":"2022-062AA","MEAN_ANOMALY":"270.9156","EPHEMERIS_TYPE":"0","CENTER_NAME":"EARTH","NORAD_CAT_ID":"52854","SITE":"AFETR","GP_ID":"234518445","OBJECT_TYPE":"PAYLOAD","MEAN_ELEMENT_THEORY":"SGP4","FILE":"3941346","PERIAPSIS":"539.031","EPOCH":"2023-06-24T01:44:52.986336","RCS_SIZE":"LARGE","ARG_OF_PERICENTER":"89.1958","MEAN_MOTION_DOT":"-0.00000569","CLASSIFICATION_TYPE":"U","MEAN_MOTION":"15.08833970","TLE_LINE2":"2 52854  53.2158 146.6788 0001059  89.1958 270.9156 15.08833970 57012","RA_OF_ASC_NODE":"146.6788","REF_FRAME":"TEME","ECCENTRICITY":"0.00010590","TLE_LINE1":"1 52854U 22062AA  23175.07283549 -.00000569  00000-0 -17702-4 0  9995","MEAN_MOTION_DDOT":"0.0000000000000","TIME_SYSTEM":"UTC","DECAY_DATE":null,"INCLINATION":"53.2158","BSTAR":"-0.00001770200000"},{"RCS_SIZE":"LARGE","ARG_OF_PERICENTER":"92.5802","OBJECT_TYPE":"PAYLOAD","PERIAPSIS":"538.929","EPOCH":"2023-06-24T07:50:31.060032","MEAN_ELEMENT_THEORY":"SGP4","FILE":"3941651","MEAN_MOTION":"15.08843293","TLE_LINE2":"2 52855  53.2154 145.5421 0001165  92.5802 267.5323 15.08843293 57056","RA_OF_ASC_NODE":"145.5421","MEAN_MOTION_DOT":"0.00000584","CLASSIFICATION_TYPE":"U","REF_FRAME":"TEME","DECAY_DATE":null,"TIME_SYSTEM":"UTC","BSTAR":"0.00005475500000","INCLINATION":"53.2154","ECCENTRICITY":"0.00011650","MEAN_MOTION_DDOT":"0.0000000000000","TLE_LINE1":"1 52855U 22062AB  23175.32674838  .00000584  00000-0  54755-4 0  9993","PERIOD":"95.437","ELEMENT_SET_NO":"999","COUNTRY_CODE":"US","APOAPSIS":"540.541","SEMIMAJOR_AXIS":"6917.870","OBJECT_NAME":"STARLINK-4209","MEAN_ANOMALY":"267.5323","REV_AT_EPOCH":"5705","LAUNCH_DATE":"2022-06-17","OBJECT_ID":"2022-062AB","GP_ID":"234525760","EPHEMERIS_TYPE":"0","SITE":"AFETR","CENTER_NAME":"EARTH","NORAD_CAT_ID":"52855"},{"EPHEMERIS_TYPE":"0","NORAD_CAT_ID":"52856","CENTER_NAME":"EARTH","SITE":"AFETR","GP_ID":"234511739","LAUNCH_DATE":"2022-06-17","REV_AT_EPOCH":"5695","OBJECT_ID":"2022-062AC","MEAN_ANOMALY":"263.1604","OBJECT_NAME":"STARLINK-4201","SEMIMAJOR_AXIS":"6917.882","COUNTRY_CODE":"US","APOAPSIS":"540.476","PERIOD":"95.438","ELEMENT_SET_NO":"999","ECCENTRICITY":"0.00010540","TLE_LINE1":"1 52856U 22062AC  23174.66803226  .00000174  00000-0  29002-4 0  9997","MEAN_MOTION_DDOT":"0.0000000000000","TIME_SYSTEM":"UTC","DECAY_DATE":null,"INCLINATION":"53.2150","BSTAR":"0.00002900200000","REF_FRAME":"TEME","MEAN_MOTION_DOT":"0.00000174","CLASSIFICATION_TYPE":"U","MEAN_MOTION":"15.08839441","RA_OF_ASC_NODE":"148.4977","TLE_LINE2":"2 52856  53.2150 148.4977 0001054  96.9508 263.1604 15.08839441 56951","OBJECT_TYPE":"PAYLOAD","FILE":"3941055","MEAN_ELEMENT_THEORY":"SGP4","EPOCH":"2023-06-23T16:01:57.987264","PERIAPSIS":"539.018","RCS_SIZE":"LARGE","ARG_OF_PERICENTER":"96.9508"}];
